OBJECT_NAME,OBJECT_ID,EPOCH,MEAN_MOTION,ECCENTRICITY,INCLINATION,RA_OF_ASC_NODE,ARG_OF_PERICENTER,MEAN_ANOMALY,EPHEMERIS_TYPE,CLASSIFICATION_TYPE,NORAD_CAT_ID,ELEMENT_SET_NO,REV_AT_EPOCH,BSTAR,MEAN_MOTION_DOT,MEAN_MOTION_DDOT
STARLINK-30380,2023-134K,2026-06-14T19:52:04.772928,15.27580519,.00012733,43.0062,5.8254,258.8092,101.2616,0,U,57780,999,15436,.25595573E-4,.442E-5,0
STARLINK-30369,2023-134L,2026-06-14T19:46:31.290528,15.27574815,.00014865,43.0013,5.7916,267.1717,92.8964,0,U,57781,999,15436,-.23394066E-4,-.906E-5,0
STARLINK-30376,2023-134M,2026-06-13T07:26:07.268640,15.27585638,.00018502,43.0090,14.2213,258.2625,101.8019,0,U,57782,999,15413,.59843926E-4,.1385E-4,0
STARLINK-30389,2023-134N,2026-06-14T20:55:55.430976,15.27579797,.00010441,43.0036,8.7163,265.8305,94.2427,0,U,57783,999,15433,.24932102E-4,.424E-5,0
STARLINK-30388,2023-134P,2026-06-14T07:04:02.053344,15.27570453,.00016811,43.0048,8.7080,247.1322,112.9352,0,U,57784,999,15428,-.18719356E-4,-.777E-5,0
STARLINK-30381,2023-134Q,2026-06-14T20:03:09.711648,15.27585816,.00014392,43.0041,5.7951,264.5405,95.5282,0,U,57785,999,15436,.62404904E-4,.1456E-4,0
STARLINK-30382,2023-134R,2026-06-13T07:20:34.767744,15.27573281,.0001333,43.0078,14.1922,262.4936,97.5764,0,U,57786,999,15413,-.25777905E-4,-.971E-5,0
STARLINK-30378,2023-134S,2026-06-14T20:17:59.016480,15.27581704,.00004594,43.0012,5.9614,261.7156,98.3644,0,U,57787,999,15436,.30301959E-4,.572E-5,0
STARLINK-30387,2023-134T,2026-06-14T19:28:05.473344,15.27581428,.00007,43.0050,354.6030,226.3633,133.7161,0,U,57788,999,15449,.19886671E-4,.285E-5,0
STARLINK-30372,2023-134U,2026-06-14T22:52:58.851552,15.27736172,.00024513,43.0034,249.0787,280.1675,79.8900,0,U,57789,999,15574,.54800957E-3,.14921E-3,0
STARLINK-30367,2023-134W,2026-06-14T19:57:41.720832,15.27537135,.00012341,43.0061,5.8607,263.8965,96.1746,0,U,57791,999,15436,-.17444158E-3,-.5053E-4,0
TIANQI-21,2023-135A,2026-06-15T05:37:22.033920,14.23117961,.00137004,49.9702,160.5349,251.3341,108.6084,0,U,57792,999,14435,.1716699E-3,.231E-5,0
TIANQI-22,2023-135B,2026-06-15T05:12:46.540512,14.23241831,.00132954,49.9669,160.8097,255.5576,104.3861,0,U,57793,999,14434,.57115615E-4,-.29E-6,0
TIANQI-23,2023-135C,2026-06-15T06:00:44.276544,14.23037056,.00139546,49.9706,160.6830,255.3885,104.5480,0,U,57794,999,14435,.82931142E-4,.29E-6,0
TIANQI-24,2023-135D,2026-06-15T06:27:26.175744,14.23142838,.00143903,49.9715,160.8538,255.7146,104.2169,0,U,57795,999,14435,-.20637996E-4,-.206E-5,0
YAOGAN-33 03,2023-136A,2026-06-15T06:33:38.743776,14.58724748,.00074161,98.1958,90.6184,183.4297,176.6853,0,U,57797,999,14765,.83844832E-4,.345E-5,0
XRISM,2023-137A,2026-06-14T22:43:24.893760,15.12448733,.00079677,31.0032,14.1135,301.5988,58.3873,0,U,57800,999,15252,.25816333E-3,.4701E-4,0
STARLINK-30374,2023-138B,2026-06-14T22:23:33.664128,15.27575809,.0002277,43.0129,44.7382,286.1329,73.9272,0,U,57809,999,15361,.72009E-5,-.65E-6,0
STARLINK-30394,2023-138C,2026-06-14T22:43:54.770016,15.27592256,.0000879,43.0060,44.8415,253.0155,107.0600,0,U,57810,999,15351,.70895E-3,.19305E-3,0
STARLINK-30379,2023-138D,2026-06-14T08:42:03.239136,15.27571594,.00012272,43.0030,48.1890,270.2133,89.8578,0,U,57811,999,15352,-.21302645E-4,-.848E-5,0
STARLINK-30395,2023-138E,2026-06-14T22:55:00.763680,15.27574521,.0001578,42.9979,44.8895,274.8963,85.1708,0,U,57812,999,15361,-.39901E-4,-.136E-4,0
STARLINK-30403,2023-138F,2026-06-14T22:58:41.636640,15.27583892,.0001193,43.0109,44.9128,287.3167,72.7554,0,U,57813,999,15351,-.46693E-4,-.1547E-4,0
STARLINK-30413,2023-138G,2026-06-14T09:39:25.405632,15.27569770,.00011376,43.0024,48.4870,279.7273,80.3450,0,U,57814,999,15352,-.19962904E-4,-.811E-5,0
STARLINK-30398,2023-138H,2026-06-14T23:15:22.349088,15.27589342,.0000793,43.0044,44.9998,208.2921,151.7887,0,U,57815,999,15351,-.66706E-4,-.2098E-4,0
STARLINK-30386,2023-138J,2026-06-14T09:13:30.273888,15.27575210,.00011723,43.0024,48.3524,263.8299,96.2419,0,U,57816,999,15334,.3029983E-5,-.179E-5,0
STARLINK-30391,2023-138K,2026-06-14T09:19:02.944128,15.27629032,.00031836,43.0052,48.3764,267.7460,92.3028,0,U,57817,999,15352,.66549662E-3,.18124E-3,0
STARLINK-30401,2023-138L,2026-06-14T09:22:40.350720,15.27610070,.00023393,43.0096,48.3867,285.3375,74.7219,0,U,57818,999,15342,-.43339998E-3,-.12181E-3,0
STARLINK-30390,2023-138M,2026-06-14T09:28:18.306048,15.27576980,.00015129,43.0061,48.4251,259.7169,100.3513,0,U,57819,999,15346,.5726675E-5,-.105E-5,0
STARLINK-30409,2023-138N,2026-06-13T23:02:18.369312,15.27574915,.0001135,43.0061,50.3090,262.9370,97.1352,0,U,57820,999,15340,.12923E-4,.93E-6,0
STARLINK-30415,2023-138P,2026-06-14T22:18:13.114080,15.27566795,.000133,43.0030,45.5558,268.1954,91.8745,0,U,57821,999,15360,-.85887E-4,-.2624E-4,0
