STARLINK-30380          
1 57780U 23134K   26165.82783302  .00000442  00000+0  25596-4 0  9993
2 57780  43.0062   5.8254 0001273 258.8092 101.2616 15.27580519154364
STARLINK-30369          
1 57781U 23134L   26165.82397327 -.00000906  00000+0 -23394-4 0  9993
2 57781  43.0013   5.7916 0001486 267.1717  92.8964 15.27574815154361
STARLINK-30376          
1 57782U 23134M   26164.30980635  .00001385  00000+0  59844-4 0  9995
2 57782  43.0090  14.2213 0001850 258.2625 101.8019 15.27585638154138
STARLINK-30389          
1 57783U 23134N   26165.87216934  .00000424  00000+0  24932-4 0  9996
2 57783  43.0036   8.7163 0001044 265.8305  94.2427 15.27579797154334
STARLINK-30388          
1 57784U 23134P   26165.29446821 -.00000777  00000+0 -18719-4 0  9992
2 57784  43.0048   8.7080 0001681 247.1322 112.9352 15.27570453154284
STARLINK-30381          
1 57785U 23134Q   26165.83552907  .00001456  00000+0  62405-4 0  9990
2 57785  43.0041   5.7951 0001439 264.5405  95.5282 15.27585816154364
STARLINK-30382          
1 57786U 23134R   26164.30595796 -.00000971  00000+0 -25778-4 0  9990
2 57786  43.0078  14.1922 0001333 262.4936  97.5764 15.27573281154131
STARLINK-30378          
1 57787U 23134S   26165.84582195  .00000572  00000+0  30302-4 0  9994
2 57787  43.0012   5.9614 0000459 261.7156  98.3644 15.27581704154360
STARLINK-30387          
1 57788U 23134T   26165.81117446  .00000285  00000+0  19887-4 0  9991
2 57788  43.0050 354.6030 0000700 226.3633 133.7161 15.27581428154490
STARLINK-30372          
1 57789U 23134U   26165.95345893  .00014921  00000+0  54801-3 0  9992
2 57789  43.0034 249.0787 0002451 280.1675  79.8900 15.27736172155746
STARLINK-30367          
1 57791U 23134W   26165.83173288 -.00005053  00000+0 -17444-3 0  9999
2 57791  43.0061   5.8607 0001234 263.8965  96.1746 15.27537135154361
TIANQI-21               
1 57792U 23135A   26166.23428280  .00000231  00000+0  17167-3 0  9994
2 57792  49.9702 160.5349 0013700 251.3341 108.6084 14.23117961144350
TIANQI-22               
1 57793U 23135B   26166.21720533 -.00000029  00000+0  57116-4 0  9994
2 57793  49.9669 160.8097 0013295 255.5576 104.3861 14.23241831144340
TIANQI-23               
1 57794U 23135C   26166.25051246  .00000029  00000+0  82931-4 0  9999
2 57794  49.9706 160.6830 0013954 255.3885 104.5480 14.23037056144351
TIANQI-24               
1 57795U 23135D   26166.26905296 -.00000206  00000+0 -20638-4 0  9999
2 57795  49.9715 160.8538 0014390 255.7146 104.2169 14.23142838144354
YAOGAN-33 03            
1 57797U 23136A   26166.27336509  .00000345  00000+0  83845-4 0  9999
2 57797  98.1958  90.6184 0007416 183.4297 176.6853 14.58724748147656
XRISM                   
1 57800U 23137A   26165.94681590  .00004701  00000+0  25816-3 0  9994
2 57800  31.0032  14.1135 0007967 301.5988  58.3873 15.12448733152526
STARLINK-30374          
1 57809U 23138B   26165.93302852 -.00000065  00000+0  72009-5 0  9992
2 57809  43.0129  44.7382 0002277 286.1329  73.9272 15.27575809153612
STARLINK-30394          
1 57810U 23138C   26165.94716169  .00019305  00000+0  70895-3 0  9990
2 57810  43.0060  44.8415 0000879 253.0155 107.0600 15.27592256153510
STARLINK-30379          
1 57811U 23138D   26165.36253749 -.00000848  00000+0 -21303-4 0  9992
2 57811  43.0030  48.1890 0001227 270.2133  89.8578 15.27571594153521
STARLINK-30395          
1 57812U 23138E   26165.95486995 -.00001360  00000+0 -39901-4 0  9992
2 57812  42.9979  44.8895 0001578 274.8963  85.1708 15.27574521153617
STARLINK-30403          
1 57813U 23138F   26165.95742635 -.00001547  00000+0 -46693-4 0  9992
2 57813  43.0109  44.9128 0001193 287.3167  72.7554 15.27583892153514
STARLINK-30413          
1 57814U 23138G   26165.40237738 -.00000811  00000+0 -19963-4 0  9999
2 57814  43.0024  48.4870 0001137 279.7273  80.3450 15.27569770153525
STARLINK-30398          
1 57815U 23138H   26165.96900867 -.00002098  00000+0 -66706-4 0  9997
2 57815  43.0044  44.9998 0000793 208.2921 151.7887 15.27589342153517
STARLINK-30386          
1 57816U 23138J   26165.38437817 -.00000179  00000+0  30300-5 0  9993
2 57816  43.0024  48.3524 0001172 263.8299  96.2419 15.27575210153340
STARLINK-30391          
1 57817U 23138K   26165.38822852  .00018124  00000+0  66550-3 0  9993
2 57817  43.0052  48.3764 0003183 267.7460  92.3028 15.27629032153520
STARLINK-30401          
1 57818U 23138L   26165.39074480 -.00012181  00000+0 -43340-3 0  9992
2 57818  43.0096  48.3867 0002339 285.3375  74.7219 15.27610070153423
STARLINK-30390          
1 57819U 23138M   26165.39465632 -.00000105  00000+0  57267-5 0  9993
2 57819  43.0061  48.4251 0001512 259.7169 100.3513 15.27576980153460
STARLINK-30409          
1 57820U 23138N   26164.95993483  .00000093  00000+0  12923-4 0  9990
2 57820  43.0061  50.3090 0001135 262.9370  97.1352 15.27574915153400
STARLINK-30415          
1 57821U 23138P   26165.92931845 -.00002624  00000+0 -85887-4 0  9996
2 57821  43.0030  45.5558 0001330 268.1954  91.8745 15.27566795153601
